SYRACUSE 3A             
1 28885U 05041B   20168.41602637  .00000138  00000-0  00000+0 0  9998
2 28885   0.0173  68.4103 0003451  18.2997  15.1749  1.00270695 53752
INMARSAT 4-F2           
1 28899U 05044A   20168.20403774  .00000017  00000-0  00000-0 0  9991
2 28899   3.0285  29.9503 0002902  68.7935 303.5329  1.00274285 53546
TELKOM 2                
1 28902U 05046A   20168.11507755 -.00000130  00000-0  00000-0 0  9999
2 28902   0.0541 110.3216 0001638 285.5643  67.3629  1.00271342 53469
SPACEWAY 2              
1 28903U 05046B   20168.23837881  .00000113  00000-0  00000-0 0  9999
2 28903   0.2000  93.6040 0000176 242.9242 235.3468  1.00272435 29362
METEOSAT-9 (MSG-2)      
1 28912U 05049B   20168.04840885  .00000027  00000-0  00000-0 0  9993
2 28912   4.4229  70.1548 0001783  27.1040 188.4976  1.00278650 53058
EUTELSAT 174A           
1 28924U 05052A   20168.54931156  .00000019  00000-0  00000+0 0  9997
2 28924   0.0642  10.7638 0006337  78.2352 188.0084  1.00272039 53001
ECHOSTAR 10             
1 28935U 06003A   20168.51306355 -.00000046  00000-0  00000+0 0  9991
2 28935   0.0205 242.7375 0001084 167.7264 289.2859  1.00271254 52543
SPAINSAT                
1 28945U 06007A   20168.34702501 -.00000207  00000-0  00000+0 0  9999
2 28945   0.0346 243.4778 0003046 232.9341 243.6225  1.00272118 52255
EUTELSAT HOT BIRD 13E   
1 28946U 06007B   20168.19383115  .00000097  00000-0  00000-0 0  9996
2 28946   0.0454 174.4152 0005577 305.5386 227.7566  1.00275303 52320
JCSAT-5A                
1 29045U 06010A   20168.43295014 -.00000318  00000-0  00000+0 0  9994
2 29045   0.0246 276.1369 0001793 189.0479  87.8885  1.00271901 51962
ASTRA 1KR               
1 29055U 06012A   20168.33868664  .00000129  00000-0  00000+0 0  9992
2 29055   0.0144 275.2429 0001242 218.2158 272.7269  1.00269782 51768
GOES 13                 
1 29155U 06018A   20168.14980171  .00000046  00000-0  00000-0 0  9995
2 29155   0.1488 257.7111 0005849 290.2565 192.2343  1.00275529 21383
EUTELSAT 113 WEST A     
1 29162U 06020A   20168.18799669 -.00000028  00000-0  00000-0 0  9991
2 29162   0.0544 113.5250 0003131 335.5149 130.5511  1.00272264 51501
GALAXY 16 (G-16)        
1 29236U 06023A   20168.18243689 -.00000118  00000-0  00000-0 0  9992
2 29236   0.0229  81.0124 0002825   4.2399 146.3229  1.00271899 51243
EUTELSAT HOT BIRD 13B   
1 29270U 06032A   20168.19383115  .00000096  00000-0  00000-0 0  9994
2 29270   0.0613  11.2484 0003966  51.8804 284.5873  1.00274631 25336
JCSAT-3A                
1 29272U 06033A   20168.43216501 -.00000335  00000-0  00000+0 0  9994
2 29272   0.0306 277.6905 0002092 178.4695  92.5762  1.00273136 50786
SYRACUSE 3B             
1 29273U 06033B   20168.19025446 -.00000035  00000-0  00000-0 0  9992
2 29273   0.0222 355.2348 0005562  91.3003 241.6591  1.00272111 50722
KOREASAT 5 (MUGUNGWHA 5)
1 29349U 06034A   20168.51438417 -.00000348  00000-0  00000+0 0  9995
2 29349   0.0229  91.7497 0001519  39.8039  71.9234  1.00272185 50655
DIRECTV 9S              
1 29494U 06043A   20168.18764947 -.00000104  00000-0  00000-0 0  9990
2 29494   0.0132 173.1926 0002913 276.5620 141.5070  1.00271995 29427
OPTUS D1                
1 29495U 06043B   20168.09841123 -.00000102  00000-0  00000-0 0  9991
2 29495   0.0183 292.0204 0003370 154.4892  13.7379  1.00272535 50143
XM-4 (BLUES)            
1 29520U 06049A   20168.51029657 -.00000013  00000-0  00000+0 0  9993
2 29520   0.0424 148.3871 0000145 263.4948 281.7791  1.00272542 50023
BADR-4                  
1 29526U 06051A   20168.19644822  .00000153  00000-0  00000-0 0  9998
2 29526   0.0492 339.4027 0002382  81.1298 301.0961  1.00271015 29292
WILDBLUE-1              
1 29643U 06054A   20168.18799669 -.00000040  00000-0  00000-0 0  9996
2 29643   0.0279  87.5406 0001549   6.0746 127.7906  1.00270154 31822
AMC-18                  
1 29644U 06054B   20168.23837862  .00000113  00000-0  00000-0 0  9991
2 29644   0.0226  66.7302 0003143  26.1257 118.9270  1.00276236 49609
MEASAT-3                
1 29648U 06056A   20168.06594328 -.00000234  00000-0  00000-0 0  9990
2 29648   0.0493 145.6351 0003398 329.7706 264.6385  1.00272881 28484
INSAT-4B                
1 30793U 07007A   20168.05575760 -.00000180  00000-0  00000+0 0  9997
2 30793   0.4401  97.7792 0000891 230.8059  41.7784  1.00270478 48584
SKYNET 5A               
1 30794U 07007B   20168.49741750 -.00000262  00000-0  00000+0 0  9991
2 30794   0.5652  90.1561 0004126   3.5678  85.7829  1.00272264 48675
ANIK F3                 
1 31102U 07009A   20168.23951844  .00000008  00000-0  00000-0 0  9994
2 31102   0.0179  64.6322 0002151  15.9618 151.8778  1.00272808 24582
ASTRA 1L                
1 31306U 07016A   20168.05154934  .00000128  00000-0  00000-0 0  9996
2 31306   0.0294 331.4831 0001458  49.8352 281.2245  1.00268968 23056
GALAXY 17 (G-17)        
1 31307U 07016B   20168.42648166 -.00000165  00000-0  00000+0 0  9994
2 31307   0.0213  25.5192 0003164  63.7987 238.3698  1.00272210 48095
ZHONGXING-6B            
1 31800U 07031A   20168.25667116 -.00000353  00000-0  00000-0 0  9996
2 31800   0.0246  86.7808 0003705   4.2847  21.8275  1.00269534 47458
DIRECTV 10              
1 31862U 07032A   20168.18243689 -.00000094  00000-0  00000-0 0  9994
2 31862   0.0270 200.2501 0000202 301.5647  86.0276  1.00272037 23636
SPACEWAY 3              
1 32018U 07036A   20168.42436984 -.00000142  00000-0  00000+0 0  9994
2 32018   0.0090  85.5257 0000165 161.3017  76.1343  1.00268403 47142
BSAT-3A                 
1 32019U 07036B   20168.06960719 -.00000342  00000-0  00000-0 0  9996
2 32019   0.0657 241.5857 0001327 300.1548 217.9731  1.00272480 28533
INSAT-4CR               
1 32050U 07037A   20168.48799602  .00000134  00000-0  00000+0 0  9996
2 32050   1.3355  93.3420 0003633 185.8088 209.5739  1.00272736 46871
OPTUS D2                
1 32252U 07044A   20168.26426963 -.00000174  00000-0  00000-0 0  9997
2 32252   0.0172 318.7197 0003599 128.2011  65.2073  1.00272795 46593
INTELSAT 11 (IS-11)     
1 32253U 07044B   20168.18275216 -.00000260  00000-0  00000-0 0  9998
2 32253   0.0185  18.0785 0001356  82.2772 187.3569  1.00271603 46620
WGS F1 (USA 195)        
1 32258U 07046A   20168.32202100  .00000050  00000-0  00000+0 0  9998
2 32258   0.0179 358.0120 0000300 200.6639 188.2887  1.00271648 46345
STAR ONE C1             
1 32293U 07056A   20168.22827209 -.00000267  00000-0  00000-0 0  9992
2 32293   0.0359 100.5814 0002742 353.7980 187.7588  1.00272554 29794
SKYNET 5B               
1 32294U 07056B   20168.33955900  .00000151  00000-0  00000+0 0  9995
2 32294   0.0709 351.5997 0003322  98.5530 322.2581  1.00270187 46219
ASTRA 4A (SIRIUS 4)     
1 32299U 07057A   20168.19632521  .00000042  00000-0  00000-0 0  9996
2 32299   0.0164 328.6386 0002966 119.2305 252.5419  1.00273692 29704
HORIZONS 2              
1 32388U 07063B   20168.06156694 -.00000174  00000-0  00000+0 0  9996
2 32388   0.0170   2.5210 0002921  83.5966 285.6835  1.00271811 45901
THURAYA-3               
1 32404U 08001A   20168.51993854 -.00000294  00000-0  00000+0 0  9998
2 32404   3.7666   9.9718 0004946  55.2721 125.6704  1.00271039 45559
EXPRESS-AM33            
1 32478U 08003A   20168.26993735 -.00000271  00000-0  00000+0 0  9996
2 32478   0.0374 201.6075 0000375 332.2201 284.8335  1.00270909 45638
THOR 5                  
1 32487U 08006A   20168.20288249 -.00000000  00000-0  00000-0 0  9991
2 32487   0.0321 268.2839 0002389 173.4469 255.5037  1.00270983 45327
AMC-14                  
1 32708U 08011A   20167.83605095  .00000080  00000-0  00000-0 0  9990
2 32708  20.9618  47.4827 0044320   6.6397 169.3847  1.00274686 46174
DIRECTV 11              
1 32729U 08013A   20168.52064914 -.00000116  00000-0  00000+0 0  9991
2 32729   0.0271 164.0962 0000216 106.4900  82.9193  1.00270759 44968
ICO G1                  
1 32763U 08016A   20168.45990604 -.00000164  00000-0  00000+0 0  9991
2 32763   3.6386  12.9599 0002259  67.8258 257.0958  1.00270881 44492
VINASAT-1               
1 32767U 08018A   20168.03591028 -.00000320  00000-0  00000-0 0  9993
2 32767   0.0092 341.2477 0001361 127.4420 300.9371  1.00271124 44613
STAR ONE C2             
1 32768U 08018B   20168.46444231 -.00000255  00000-0  00000+0 0  9990
2 32768   0.0467 142.9373 0002507 350.4146 229.0463  1.00272660 44571
TIANLIAN 1-01           
1 32779U 08019A   20168.13555753 -.00000133  00000-0  00000-0 0  9995
2 32779   4.1221  72.5704 0030869 262.9930  58.1225  1.00272955 44431
AMOS-3                  
1 32794U 08022A   20168.32757814 -.00000026  00000-0  00000+0 0  9999
2 32794   0.0372 114.5634 0002247 319.7850 304.4856  1.00272617 44476
GALAXY 18 (G-18)        
1 32951U 08024A   20168.36924469  .00000034  00000-0  00000+0 0  9990
2 32951   0.0191  24.9364 0002743  65.9903 184.0907  1.00272974 44109
CHINASAT 9 (ZX 9)       
1 33051U 08028A   20168.51993854 -.00000237  00000-0  00000+0 0  9993
2 33051   0.0201 352.2932 0003502  95.9859  96.3382  1.00270179 44037
SKYNET 5C               
1 33055U 08030A   20168.18772462 -.00000131  00000-0  00000-0 0  9997
2 33055   0.0620 358.4562 0003710  88.6523 227.5999  1.00270722 43979
TURKSAT 3A              
1 33056U 08030B   20168.12788078  .00000154  00000-0  00000-0 0  9996
2 33056   0.0453  83.6118 0005140 359.9846 269.2871  1.00274207 30373
INTELSAT 25 (IS-25)     
1 33153U 08034A   20168.47211907 -.00000214  00000-0  00000+0 0  9995
2 33153   0.0128 312.9745 0000667  97.3651 353.3180  1.00269246 43661
BADR-6                  
1 33154U 08034B   20168.19644822  .00000153  00000-0  00000-0 0  9993
2 33154   0.0512  27.7500 0006450  61.5450 272.3554  1.00275061 43774
ECHOSTAR 11             
1 33207U 08035A   20168.51396655 -.00000047  00000-0  00000+0 0  9999
2 33207   0.0423  96.1697 0002319 351.0218 253.0718  1.00272089 43685
